STARLINK-4548           
1 53431U 22097AV  25297.39580117 -.00003043  00000+0 -17321-3 0  9993
2 53431  53.2187 355.5833 0001440  91.2659 268.8498 15.08834534178212
STARLINK-4557           
1 53432U 22097AW  25297.47677427  .00000242  00000+0  33327-4 0  9995
2 53432  53.2181 355.3689 0001474  90.9650 269.1511 15.08839656178229
STARLINK-4549           
1 53433U 22097AX  25297.56512072  .00000040  00000+0  20632-4 0  9991
2 53433  53.2180 355.2028 0001413  88.5582 271.5572 15.08843078178211
STARLINK-4498           
1 53434U 22097AY  25297.53933390  .00000838  00000+0  70722-4 0  9999
2 53434  53.2178 355.0459 0001302  88.4074 271.7067 15.08836072178247
STARLINK-4542           
1 53435U 22097AZ  25297.54670054  .00000493  00000+0  49047-4 0  9999
2 53435  53.2184 355.0930 0001358  88.5156 271.5991 15.08838522178215
STARLINK-4527           
1 53436U 22097BA  25297.46940178  .00004748  00000+0  31618-3 0  9999
2 53436  53.2187 355.3224 0001166  87.9989 272.1137 15.08840410178221
STARLINK-4526           
1 53438U 22097BC  25297.46572036  .00002025  00000+0  14533-3 0  9998
2 53438  53.2188 355.3006 0001372  95.8093 264.3055 15.08830120178235
STARLINK-4519           
1 53439U 22097BD  25297.47773480 -.00000126  00000+0  10150-4 0  9999
2 53439  53.2181 355.3697 0001253  90.8502 269.2634 15.08837180178233
STARLINK-4415           
1 53465U 22099A   25297.78148205  .00003855  00000+0  27102-3 0  9990
2 53465  97.6041  57.2517 0001481  82.0420 278.0975 15.05677419175588
STARLINK-4398           
1 53466U 22099B   25297.29050758  .00001088  00000+0  89204-4 0  9990
2 53466  97.6044  56.6729 0001730 247.6561 112.4480 15.01263624175512
STARLINK-4394           
1 53467U 22099C   25297.77597772 -.00000786  00000+0 -50284-4 0  9998
2 53467  97.6029  57.3044 0001423  89.9407 270.1982 15.05652904175593
STARLINK-4400           
1 53468U 22099D   25297.62006927  .00000758  00000+0  63548-4 0  9994
2 53468  97.6050  56.9975 0000472 133.7582 226.3681 15.01265206175568
STARLINK-4399           
1 53469U 22099E   25297.76489573  .00005332  00000+0  37339-3 0  9993
2 53469  97.6036  57.2593 0001001  70.3407 289.7928 15.05659435175599
STARLINK-4393           
1 53470U 22099F   25297.75128178  .00000793  00000+0  66245-4 0  9990
2 53470  97.6044  57.1271 0001771  89.2010 270.9418 15.01263777175586
STARLINK-4316           
1 53471U 22099G   25297.78426220  .00046495  00000+0  32268-2 0  9998
2 53471  97.6030  57.2277 0001438  89.6724 270.4668 15.05403210175590
STARLINK-4447           
1 53472U 22099H   25297.61427389  .00000575  00000+0  49295-4 0  9997
2 53472  97.6018  56.9963 0002007  82.8954 277.2499 15.01263292175562
STARLINK-4383           
1 53473U 22099J   25297.75105812  .00000886  00000+0  65610-4 0  9991
2 53473  97.6013  57.2598 0000921  85.6050 274.5282 15.05654110175597
