[{"OBJECT_NAME":"STARLINK-4548","OBJECT_ID":"2022-097AV","EPOCH":"2025-10-24T09:29:57.221088","MEAN_MOTION":15.08834534,"ECCENTRICITY":0.000144,"INCLINATION":53.2187,"RA_OF_ASC_NODE":355.5833,"ARG_OF_PERICENTER":91.2659,"MEAN_ANOMALY":268.8498,"EPHEMERIS_TYPE":0,"CLASSIFICATION_TYPE":"U","NORAD_CAT_ID":53431,"ELEMENT_SET_NO":999,"REV_AT_EPOCH":17821,"BSTAR":-0.00017321,"MEAN_MOTION_DOT":-3.043e-5,"MEAN_MOTION_DDOT":0},{"OBJECT_NAME":"STARLINK-4557","OBJECT_ID":"2022-097AW","EPOCH":"2025-10-24T11:26:33.296928","MEAN_MOTION":15.08839656,"ECCENTRICITY":0.0001474,"INCLINATION":53.2181,"RA_OF_ASC_NODE":355.3689,"ARG_OF_PERICENTER":90.965,"MEAN_ANOMALY":269.1511,"EPHEMERIS_TYPE":0,"CLASSIFICATION_TYPE":"U","NORAD_CAT_ID":53432,"ELEMENT_SET_NO":999,"REV_AT_EPOCH":17822,"BSTAR":3.3327e-5,"MEAN_MOTION_DOT":2.42e-6,"MEAN_MOTION_DDOT":0},{"OBJECT_NAME":"STARLINK-4549","OBJECT_ID":"2022-097AX","EPOCH":"2025-10-24T13:33:46.430208","MEAN_MOTION":15.08843078,"ECCENTRICITY":0.0001413,"INCLINATION":53.218,"RA_OF_ASC_NODE":355.2028,"ARG_OF_PERICENTER":88.5582,"MEAN_ANOMALY":271.5572,"EPHEMERIS_TYPE":0,"CLASSIFICATION_TYPE":"U","NORAD_CAT_ID":53433,"ELEMENT_SET_NO":999,"REV_AT_EPOCH":17821,"BSTAR":2.0632e-5,"MEAN_MOTION_DOT":4.0e-7,"MEAN_MOTION_DDOT":0},{"OBJECT_NAME":"STARLINK-4498","OBJECT_ID":"2022-097AY","EPOCH":"2025-10-24T12:56:38.448960","MEAN_MOTION":15.08836072,"ECCENTRICITY":0.0001302,"INCLINATION":53.2178,"RA_OF_ASC_NODE":355.0459,"ARG_OF_PERICENTER":88.4074,"MEAN_ANOMALY":271.7067,"EPHEMERIS_TYPE":0,"CLASSIFICATION_TYPE":"U","NORAD_CAT_ID":53434,"ELEMENT_SET_NO":999,"REV_AT_EPOCH":17824,"BSTAR":7.0722e-5,"MEAN_MOTION_DOT":8.38e-6,"MEAN_MOTION_DDOT":0},{"OBJECT_NAME":"STARLINK-4542","OBJECT_ID":"2022-097AZ","EPOCH":"2025-10-24T13:07:14.926656","MEAN_MOTION":15.08838522,"ECCENTRICITY":0.0001358,"INCLINATION":53.2184,"RA_OF_ASC_NODE":355.093,"ARG_OF_PERICENTER":88.5156,"MEAN_ANOMALY":271.5991,"EPHEMERIS_TYPE":0,"CLASSIFICATION_TYPE":"U","NORAD_CAT_ID":53435,"ELEMENT_SET_NO":999,"REV_AT_EPOCH":17821,"BSTAR":4.9047e-5,"MEAN_MOTION_DOT":4.93e-6,"MEAN_MOTION_DDOT":0},{"OBJECT_NAME":"STARLINK-4527","OBJECT_ID":"2022-097BA","EPOCH":"2025-10-24T11:15:56.313792","MEAN_MOTION":15.0884041,"ECCENTRICITY":0.0001166,"INCLINATION":53.2187,"RA_OF_ASC_NODE":355.3224,"ARG_OF_PERICENTER":87.9989,"MEAN_ANOMALY":272.1137,"EPHEMERIS_TYPE":0,"CLASSIFICATION_TYPE":"U","NORAD_CAT_ID":53436,"ELEMENT_SET_NO":999,"REV_AT_EPOCH":17822,"BSTAR":0.00031618,"MEAN_MOTION_DOT":4.748e-5,"MEAN_MOTION_DDOT":0},{"OBJECT_NAME":"STARLINK-4526","OBJECT_ID":"2022-097BC","EPOCH":"2025-10-24T11:10:38.239104","MEAN_MOTION":15.0883012,"ECCENTRICITY":0.0001372,"INCLINATION":53.2188,"RA_OF_ASC_NODE":355.3006,"ARG_OF_PERICENTER":95.8093,"MEAN_ANOMALY":264.3055,"EPHEMERIS_TYPE":0,"CLASSIFICATION_TYPE":"U","NORAD_CAT_ID":53438,"ELEMENT_SET_NO":999,"REV_AT_EPOCH":17823,"BSTAR":0.00014533,"MEAN_MOTION_DOT":2.025e-5,"MEAN_MOTION_DDOT":0},{"OBJECT_NAME":"STARLINK-4519","OBJECT_ID":"2022-097BD","EPOCH":"2025-10-24T11:27:56.286720","MEAN_MOTION":15.0883718,"ECCENTRICITY":0.0001253,"INCLINATION":53.2181,"RA_OF_ASC_NODE":355.3697,"ARG_OF_PERICENTER":90.8502,"MEAN_ANOMALY":269.2634,"EPHEMERIS_TYPE":0,"CLASSIFICATION_TYPE":"U","NORAD_CAT_ID":53439,"ELEMENT_SET_NO":999,"REV_AT_EPOCH":17823,"BSTAR":1.015e-5,"MEAN_MOTION_DOT":-1.26e-6,"MEAN_MOTION_DDOT":0},{"OBJECT_NAME":"STARLINK-4415","OBJECT_ID":"2022-099A","EPOCH":"2025-10-24T18:45:20.049120","MEAN_MOTION":15.05677419,"ECCENTRICITY":0.0001481,"INCLINATION":97.6041,"RA_OF_ASC_NODE":57.2517,"ARG_OF_PERICENTER":82.042,"MEAN_ANOMALY":278.0975,"EPHEMERIS_TYPE":0,"CLASSIFICATION_TYPE":"U","NORAD_CAT_ID":53465,"ELEMENT_SET_NO":999,"REV_AT_EPOCH":17558,"BSTAR":0.00027102,"MEAN_MOTION_DOT":3.855e-5,"MEAN_MOTION_DDOT":0},{"OBJECT_NAME":"STARLINK-4398","OBJECT_ID":"2022-099B","EPOCH":"2025-10-24T06:58:19.854912","MEAN_MOTION":15.01263624,"ECCENTRICITY":0.000173,"INCLINATION":97.6044,"RA_OF_ASC_NODE":56.6729,"ARG_OF_PERICENTER":247.6561,"MEAN_ANOMALY":112.448,"EPHEMERIS_TYPE":0,"CLASSIFICATION_TYPE":"U","NORAD_CAT_ID":53466,"ELEMENT_SET_NO":999,"REV_AT_EPOCH":17551,"BSTAR":8.9204e-5,"MEAN_MOTION_DOT":1.088e-5,"MEAN_MOTION_DDOT":0},{"OBJECT_NAME":"STARLINK-4394","OBJECT_ID":"2022-099C","EPOCH":"2025-10-24T18:37:24.475008","MEAN_MOTION":15.05652904,"ECCENTRICITY":0.0001423,"INCLINATION":97.6029,"RA_OF_ASC_NODE":57.3044,"ARG_OF_PERICENTER":89.9407,"MEAN_ANOMALY":270.1982,"EPHEMERIS_TYPE":0,"CLASSIFICATION_TYPE":"U","NORAD_CAT_ID":53467,"ELEMENT_SET_NO":999,"REV_AT_EPOCH":17559,"BSTAR":-5.0284e-5,"MEAN_MOTION_DOT":-7.86e-6,"MEAN_MOTION_DDOT":0},{"OBJECT_NAME":"STARLINK-4400","OBJECT_ID":"2022-099D","EPOCH":"2025-10-24T14:52:53.984928","MEAN_MOTION":15.01265206,"ECCENTRICITY":4.72e-5,"INCLINATION":97.605,"RA_OF_ASC_NODE":56.9975,"ARG_OF_PERICENTER":133.7582,"MEAN_ANOMALY":226.3681,"EPHEMERIS_TYPE":0,"CLASSIFICATION_TYPE":"U","NORAD_CAT_ID":53468,"ELEMENT_SET_NO":999,"REV_AT_EPOCH":17556,"BSTAR":6.3548e-5,"MEAN_MOTION_DOT":7.58e-6,"MEAN_MOTION_DDOT":0},{"OBJECT_NAME":"STARLINK-4399","OBJECT_ID":"2022-099E","EPOCH":"2025-10-24T18:21:26.991072","MEAN_MOTION":15.05659435,"ECCENTRICITY":0.0001001,"INCLINATION":97.6036,"RA_OF_ASC_NODE":57.2593,"ARG_OF_PERICENTER":70.3407,"MEAN_ANOMALY":289.7928,"EPHEMERIS_TYPE":0,"CLASSIFICATION_TYPE":"U","NORAD_CAT_ID":53469,"ELEMENT_SET_NO":999,"REV_AT_EPOCH":17559,"BSTAR":0.00037339,"MEAN_MOTION_DOT":5.332e-5,"MEAN_MOTION_DDOT":0},{"OBJECT_NAME":"STARLINK-4393","OBJECT_ID":"2022-099F","EPOCH":"2025-10-24T18:01:50.745792","MEAN_MOTION":15.01263777,"ECCENTRICITY":0.0001771,"INCLINATION":97.6044,"RA_OF_ASC_NODE":57.1271,"ARG_OF_PERICENTER":89.201,"MEAN_ANOMALY":270.9418,"EPHEMERIS_TYPE":0,"CLASSIFICATION_TYPE":"U","NORAD_CAT_ID":53470,"ELEMENT_SET_NO":999,"REV_AT_EPOCH":17558,"BSTAR":6.6245e-5,"MEAN_MOTION_DOT":7.93e-6,"MEAN_MOTION_DDOT":0},{"OBJECT_NAME":"STARLINK-4316","OBJECT_ID":"2022-099G","EPOCH":"2025-10-24T18:49:20.254080","MEAN_MOTION":15.0540321,"ECCENTRICITY":0.0001438,"INCLINATION":97.603,"RA_OF_ASC_NODE":57.2277,"ARG_OF_PERICENTER":89.6724,"MEAN_ANOMALY":270.4668,"EPHEMERIS_TYPE":0,"CLASSIFICATION_TYPE":"U","NORAD_CAT_ID":53471,"ELEMENT_SET_NO":999,"REV_AT_EPOCH":17559,"BSTAR":0.0032268,"MEAN_MOTION_DOT":0.00046495,"MEAN_MOTION_DDOT":0},{"OBJECT_NAME":"STARLINK-4447","OBJECT_ID":"2022-099H","EPOCH":"2025-10-24T14:44:33.264096","MEAN_MOTION":15.01263292,"ECCENTRICITY":0.0002007,"INCLINATION":97.6018,"RA_OF_ASC_NODE":56.9963,"ARG_OF_PERICENTER":82.8954,"MEAN_ANOMALY":277.2499,"EPHEMERIS_TYPE":0,"CLASSIFICATION_TYPE":"U","NORAD_CAT_ID":53472,"ELEMENT_SET_NO":999,"REV_AT_EPOCH":17556,"BSTAR":4.9295e-5,"MEAN_MOTION_DOT":5.75e-6,"MEAN_MOTION_DDOT":0},{"OBJECT_NAME":"STARLINK-4383","OBJECT_ID":"2022-099J","EPOCH":"2025-10-24T18:01:31.421568","MEAN_MOTION":15.0565411,"ECCENTRICITY":9.21e-5,"INCLINATION":97.6013,"RA_OF_ASC_NODE":57.2598,"ARG_OF_PERICENTER":85.605,"MEAN_ANOMALY":274.5282,"EPHEMERIS_TYPE":0,"CLASSIFICATION_TYPE":"U","NORAD_CAT_ID":53473,"ELEMENT_SET_NO":999,"REV_AT_EPOCH":17559,"BSTAR":6.561e-5,"MEAN_MOTION_DOT":8.86e-6,"MEAN_MOTION_DDOT":0}]
